[
  {
    "ORDINAL": "1",
    "COMMENT": "GENERATED VIA SPACETRACK.ORG API",
    "ORIGINATOR": "18 SPCS",
    "NORAD_CAT_ID": "497",
    "OBJECT_NAME": "SPUTNIK 22 DEB",
    "OBJECT_TYPE": "DEBRIS",
    "CLASSIFICATION_TYPE": "U",
    "INTLDES": "62057U",
    "EPOCH": "1962-12-23 19:24:07",
    "EPOCH_MICROSECONDS": "340256",
    "MEAN_MOTION": "16.28442266",
    "ECCENTRICITY": "0.0055727",
    "INCLINATION": "64.928",
    "RA_OF_ASC_NODE": "131.1897",
    "ARG_OF_PERICENTER": "317.1397",
    "MEAN_ANOMALY": "42.4517",
    "EPHEMERIS_TYPE": "0",
    "ELEMENT_SET_NO": "999",
    "REV_AT_EPOCH": "905",
    "BSTAR": "0",
    "MEAN_MOTION_DOT": "0.03212755",
    "MEAN_MOTION_DDOT": "0",
    "FILE": "33908",
    "TLE_LINE0": "0 SPUTNIK 22 DEB",
    "TLE_LINE1": "1 00497U 62057  U 62357.80841829  .03212755 +00000-0 +00000-0 0  9998",
    "TLE_LINE2": "2 00497 064.9280 131.1897 0055727 317.1397 042.4517 16.28442266009056",
    "OBJECT_ID": "1962-057U",
    "OBJECT_NUMBER": "497",
    "SEMIMAJOR_AXIS": "6574.871",
    "PERIOD": "88.428",
    "APOGEE": "233.375",
    "PERIGEE": "160.096",
    "DECAYED": "1"
  },
  {
    "ORDINAL": "1",
    "COMMENT": "GENERATED VIA SPACETRACK.ORG API",
    "ORIGINATOR": "18 SPCS",
    "NORAD_CAT_ID": "498",
    "OBJECT_NAME": "SPUTNIK 22 DEB",
    "OBJECT_TYPE": "DEBRIS",
    "CLASSIFICATION_TYPE": "U",
    "INTLDES": "62057V",
    "EPOCH": "1962-12-02 04:24:41",
    "EPOCH_MICROSECONDS": "447520",
    "MEAN_MOTION": "15.95049037",
    "ECCENTRICITY": "0.0159226",
    "INCLINATION": "64.9625",
    "RA_OF_ASC_NODE": "205.9788",
    "ARG_OF_PERICENTER": "326.0403",
    "MEAN_ANOMALY": "32.9522",
    "EPHEMERIS_TYPE": "0",
    "ELEMENT_SET_NO": "999",
    "REV_AT_EPOCH": "568",
    "BSTAR": "0",
    "MEAN_MOTION_DOT": "0.01426744",
    "MEAN_MOTION_DDOT": "0",
    "FILE": "33908",
    "TLE_LINE0": "0 SPUTNIK 22 DEB",
    "TLE_LINE1": "1 00498U 62057  V 62336.18381305  .01426744 +00000-0 +00000-0 0  9998",
    "TLE_LINE2": "2 00498 064.9625 205.9788 0159226 326.0403 032.9522 15.95049037005682",
    "OBJECT_ID": "1962-057V",
    "OBJECT_NUMBER": "498",
    "SEMIMAJOR_AXIS": "6666.319",
    "PERIOD": "90.279",
    "APOGEE": "394.329",
    "PERIGEE": "182.039",
    "DECAYED": "1"
  },
  {
    "ORDINAL": "1",
    "COMMENT": "GENERATED VIA SPACETRACK.ORG API",
    "ORIGINATOR": "18 SPCS",
    "NORAD_CAT_ID": "499",
    "OBJECT_NAME": "SPUTNIK 22 DEB",
    "OBJECT_TYPE": "DEBRIS",
    "CLASSIFICATION_TYPE": "U",
    "INTLDES": "62057W",
    "EPOCH": "1962-12-02 04:19:47",
    "EPOCH_MICROSECONDS": "126783",
    "MEAN_MOTION": "15.98056463",
    "ECCENTRICITY": "0.0149148",
    "INCLINATION": "64.9626",
    "RA_OF_ASC_NODE": "205.7677",
    "ARG_OF_PERICENTER": "325.0758",
    "MEAN_ANOMALY": "33.9545",
    "EPHEMERIS_TYPE": "0",
    "ELEMENT_SET_NO": "999",
    "REV_AT_EPOCH": "568",
    "BSTAR": "0",
    "MEAN_MOTION_DOT": "0.01343792",
    "MEAN_MOTION_DDOT": "0",
    "FILE": "33908",
    "TLE_LINE0": "0 SPUTNIK 22 DEB",
    "TLE_LINE1": "1 00499U 62057  W 62336.18040656  .01343792 +00000-0 +00000-0 0  9991",
    "TLE_LINE2": "2 00499 064.9626 205.7677 0149148 325.0758 033.9545 15.98056463005683",
    "OBJECT_ID": "1962-057W",
    "OBJECT_NUMBER": "499",
    "SEMIMAJOR_AXIS": "6657.953",
    "PERIOD": "90.109",
    "APOGEE": "379.120",
    "PERIGEE": "180.516",
    "DECAYED": "1"
  },
  {
    "ORDINAL": "1",
    "COMMENT": "GENERATED VIA SPACETRACK.ORG API",
    "ORIGINATOR": "18 SPCS",
    "NORAD_CAT_ID": "500",
    "OBJECT_NAME": "SPUTNIK 22 DEB",
    "OBJECT_TYPE": "DEBRIS",
    "CLASSIFICATION_TYPE": "U",
    "INTLDES": "62057X",
    "EPOCH": "1962-12-24 01:24:02",
    "EPOCH_MICROSECONDS": "18879",
    "MEAN_MOTION": "16.09097714",
    "ECCENTRICITY": "0.0259604",
    "INCLINATION": "64.757",
    "RA_OF_ASC_NODE": "134.2094",
    "ARG_OF_PERICENTER": "339.1459",
    "MEAN_ANOMALY": "19.836",
    "EPHEMERIS_TYPE": "0",
    "ELEMENT_SET_NO": "999",
    "REV_AT_EPOCH": "915",
    "BSTAR": "0",
    "MEAN_MOTION_DOT": "0.02031279",
    "MEAN_MOTION_DDOT": "0",
    "FILE": "33908",
    "TLE_LINE0": "0 SPUTNIK 22 DEB",
    "TLE_LINE1": "1 00500U 62057  X 62358.05835670  .02031279 +00000-0 +00000-0 0  9997",
    "TLE_LINE2": "2 00500 064.7570 134.2094 0259604 339.1459 019.8360 16.09097714009155",
    "OBJECT_ID": "1962-057X",
    "OBJECT_NUMBER": "500",
    "SEMIMAJOR_AXIS": "6627.461",
    "PERIOD": "89.491",
    "APOGEE": "421.377",
    "PERIGEE": "77.274",
    "DECAYED": "1"
  },
  {
    "ORDINAL": "1",
    "COMMENT": "GENERATED VIA SPACETRACK.ORG API",
    "ORIGINATOR": "18 SPCS",
    "NORAD_CAT_ID": "501",
    "OBJECT_NAME": "SPUTNIK 22 DEB",
    "OBJECT_TYPE": "DEBRIS",
    "CLASSIFICATION_TYPE": "U",
    "INTLDES": "62057Y",
    "EPOCH": "1962-12-19 23:03:41",
    "EPOCH_MICROSECONDS": "455871",
    "MEAN_MOTION": "16.03790205",
    "ECCENTRICITY": "0.014047",
    "INCLINATION": "64.5452",
    "RA_OF_ASC_NODE": "143.4513",
    "ARG_OF_PERICENTER": "308.8308",
    "MEAN_ANOMALY": "49.9255",
    "EPHEMERIS_TYPE": "0",
    "ELEMENT_SET_NO": "999",
    "REV_AT_EPOCH": "851",
    "BSTAR": "0",
    "MEAN_MOTION_DOT": "0.01808041",
    "MEAN_MOTION_DDOT": "0",
    "FILE": "33908",
    "TLE_LINE0": "0 SPUTNIK 22 DEB",
    "TLE_LINE1": "1 00501U 62057  Y 62353.96089648  .01808041 +00000-0 +00000-0 0  9997",
    "TLE_LINE2": "2 00501 064.5452 143.4513 0140470 308.8308 049.9255 16.03790205008512",
    "OBJECT_ID": "1962-057Y",
    "OBJECT_NUMBER": "501",
    "SEMIMAJOR_AXIS": "6642.075",
    "PERIOD": "89.787",
    "APOGEE": "357.241",
    "PERIGEE": "170.638",
    "DECAYED": "1"
  },
  {
    "ORDINAL": "1",
    "COMMENT": "GENERATED VIA SPACETRACK.ORG API",
    "ORIGINATOR": "18 SPCS",
    "NORAD_CAT_ID": "502",
    "OBJECT_NAME": "BLACK SPHERE",
    "OBJECT_TYPE": "PAYLOAD",
    "CLASSIFICATION_TYPE": "U",
    "INTLDES": "62067A",
    "EPOCH": "1967-02-07 16:41:28",
    "EPOCH_MICROSECONDS": "971744",
    "MEAN_MOTION": "16.1975374",
    "ECCENTRICITY": "0.0074848",
    "INCLINATION": "70.2282",
    "RA_OF_ASC_NODE": "53.0321",
    "ARG_OF_PERICENTER": "342.3153",
    "MEAN_ANOMALY": "17.5349",
    "EPHEMERIS_TYPE": "0",
    "ELEMENT_SET_NO": "999",
    "REV_AT_EPOCH": "20466",
    "BSTAR": "0",
    "MEAN_MOTION_DOT": "0.03079034",
    "MEAN_MOTION_DDOT": "0",
    "FILE": "33915",
    "TLE_LINE0": "0 BLACK SPHERE",
    "TLE_LINE1": "1 00502U 62067  A 67038.69547421  .03079034 +00000-0 +00000-0 0  9996",
    "TLE_LINE2": "2 00502 070.2282 053.0321 0074848 342.3153 017.5349 16.19753740204666",
    "OBJECT_ID": "1962-067A",
    "OBJECT_NUMBER": "502",
    "SEMIMAJOR_AXIS": "6598.362",
    "PERIOD": "88.902",
    "APOGEE": "269.614",
    "PERIGEE": "170.839",
    "DECAYED": "1"
  },
  {
    "ORDINAL": "1",
    "COMMENT": "GENERATED VIA SPACETRACK.ORG API",
    "ORIGINATOR": "18 SPCS",
    "NORAD_CAT_ID": "503",
    "OBJECT_NAME": "RELAY 1 (A-15)",
    "OBJECT_TYPE": "PAYLOAD",
    "CLASSIFICATION_TYPE": "U",
    "INTLDES": "62068A",
    "EPOCH": "2023-02-01 21:16:12",
    "EPOCH_MICROSECONDS": "27648",
    "MEAN_MOTION": "7.78165948",
    "ECCENTRICITY": "0.2846249",
    "INCLINATION": "47.5002",
    "RA_OF_ASC_NODE": "200.707",
    "ARG_OF_PERICENTER": "165.4559",
    "MEAN_ANOMALY": "358.4008",
    "EPHEMERIS_TYPE": "0",
    "ELEMENT_SET_NO": "999",
    "REV_AT_EPOCH": "70962",
    "BSTAR": "0",
    "MEAN_MOTION_DOT": "-0.00000025",
    "MEAN_MOTION_DDOT": "0",
    "FILE": "3768366",
    "TLE_LINE0": "0 RELAY 1 (A-15)",
    "TLE_LINE1": "1 00503U 62068A   23032.88625032 -.00000025  00000-0  00000-0 0  9992",
    "TLE_LINE2": "2 00503  47.5002 200.7070 2846249 165.4559 358.4008  7.78165948709621",
    "OBJECT_ID": "1962-068A",
    "OBJECT_NUMBER": "503",
    "SEMIMAJOR_AXIS": "10756.897",
    "PERIOD": "185.051",
    "APOGEE": "7440.443",
    "PERIGEE": "1317.082",
    "DECAYED": "0"
  },
  {
    "ORDINAL": "1",
    "COMMENT": "GENERATED VIA SPACETRACK.ORG API",
    "ORIGINATOR": "18 SPCS",
    "NORAD_CAT_ID": "504",
    "OBJECT_NAME": "INJUN 3",
    "OBJECT_TYPE": "PAYLOAD",
    "CLASSIFICATION_TYPE": "U",
    "INTLDES": "62067B",
    "EPOCH": "1968-08-24 23:33:53",
    "EPOCH_MICROSECONDS": "473824",
    "MEAN_MOTION": "16.37295104",
    "ECCENTRICITY": "0.0018907",
    "INCLINATION": "70.2141",
    "RA_OF_ASC_NODE": "90.6538",
    "ARG_OF_PERICENTER": "43.7589",
    "MEAN_ANOMALY": "316.502",
    "EPHEMERIS_TYPE": "0",
    "ELEMENT_SET_NO": "999",
    "REV_AT_EPOCH": "27772",
    "BSTAR": "0",
    "MEAN_MOTION_DOT": "0.06182616",
    "MEAN_MOTION_DDOT": "0",
    "FILE": "33926",
    "TLE_LINE0": "0 INJUN 3",
    "TLE_LINE1": "1 00504U 62067  B 68237.98186891  .06182616 +00000-0 +00000-0 0  9996",
    "TLE_LINE2": "2 00504 070.2141 090.6538 0018907 043.7589 316.5020 16.37295104277728",
    "OBJECT_ID": "1962-067B",
    "OBJECT_NUMBER": "504",
    "SEMIMAJOR_AXIS": "6551.149",
    "PERIOD": "87.950",
    "APOGEE": "185.400",
    "PERIGEE": "160.628",
    "DECAYED": "1"
  }
]
